NORAD_CAT_ID,OBJECT_NAME,OBJECT_TYPE,EPOCH,MEAN_MOTION,ECCENTRICITY,INCLINATION,RA_OF_ASC_NODE,ARG_OF_PERICENTER,MEAN_ANOMALY,BSTAR,MEAN_MOTION_DOT,MEAN_MOTION_DDOT,TLE_LINE0,TLE_LINE1,TLE_LINE2,SEMIMAJOR_AXIS,PERIOD,APOGEE,PERIGEE,DECAYED
53892.0,STARLINK-5046,PAYLOAD,2023-12-04 11:01:40,15.0884723,0.0001417,53.2164,73.0901,76.601,283.514,0.00093494,0.00014626,0.0,0 STARLINK-5046,1 53892U 22119G   23338.45949700  .00014626  00000-0  93494-3 0  9990,2 53892  53.2164  73.0901 0001417  76.6010 283.5140 15.08847230 66534,6917.858,95.437,540.704,538.743,0.0
53892.0,STARLINK-5046,PAYLOAD,2023-12-04 12:37:03,15.08856867,0.0001509,53.2165,72.7928,73.913,286.2028,0.0011585,0.00018206,0.0,0 STARLINK-5046,1 53892U 22119G   23338.52573598  .00018206  00000-0  11585-2 0  9994,2 53892  53.2165  72.7928 0001509  73.9130 286.2028 15.08856867 66963,6917.829,95.436,540.738,538.65,0.0
53892.0,STARLINK-5046,PAYLOAD,2023-12-05 10:52:26,15.08865326,0.0001656,53.2168,68.6305,67.3015,292.8152,0.00051929,7.992e-05,0.0,0 STARLINK-5046,1 53892U 22119G   23339.45308473  .00007992  00000-0  51929-3 0  9992,2 53892  53.2168  68.6305 0001656  67.3015 292.8152 15.08865326 66681,6917.803,95.436,540.814,538.522,0.0
53892.0,STARLINK-5046,PAYLOAD,2023-12-05 12:27:49,15.08871136,0.0001322,53.2173,68.3294,102.1335,257.9805,0.00069366,0.00010778,0.0,0 STARLINK-5046,1 53892U 22119G   23339.51932080  .00010778  00000-0  69366-3 0  9996,2 53892  53.2173  68.3294 0001322 102.1335 257.9805 15.08871136 67116,6917.785,95.436,540.565,538.736,0.0
53892.0,STARLINK-5046,PAYLOAD,2023-12-06 10:43:12,15.08847462,0.0002273,53.2189,64.169,127.8262,232.2936,8.1432e-05,1.008e-05,0.0,0 STARLINK-5046,1 53892U 22119G   23340.44667588  .00001008  00000-0  81432-4 0  9993,2 53892  53.2189  64.1690 0002273 127.8262 232.2936 15.08847462 66830,6917.858,95.437,541.295,538.15,0.0
53892.0,STARLINK-5046,PAYLOAD,2023-12-06 12:18:36,15.08848051,0.0001707,53.2185,63.8733,114.6706,245.4464,6.9368e-05,8.16e-06,0.0,0 STARLINK-5046,1 53892U 22119G   23340.51291707  .00000816  00000-0  69368-4 0  9997,2 53892  53.2185  63.8733 0001707 114.6706 245.4464 15.08848051 67263,6917.856,95.437,540.902,538.54,0.0
53892.0,STARLINK-5046,PAYLOAD,2023-12-07 12:09:23,15.08843485,0.0001392,53.218,59.409,95.4303,264.6848,0.00030222,4.526e-05,0.0,0 STARLINK-5046,1 53892U 22119G   23341.50651983  .00004526  00000-0  30222-3 0  9991,2 53892  53.2180  59.4090 0001392  95.4303 264.6848 15.08843485 66998,6917.87,95.437,540.698,538.772,0.0
53892.0,STARLINK-5046,PAYLOAD,2023-12-08 10:24:47,15.08839576,0.0001551,53.2185,55.249,102.5043,257.6123,0.00010371,1.363e-05,0.0,0 STARLINK-5046,1 53892U 22119G   23342.43388215  .00001363  00000-0  10371-3 0  9998,2 53892  53.2185  55.2490 0001551 102.5043 257.6123 15.08839576 67130,6917.882,95.438,540.82,538.674,0.0
53892.0,STARLINK-5046,PAYLOAD,2023-12-09 10:15:34,15.08838307,0.0001408,53.2181,50.7861,93.1822,266.9331,5.4686e-05,5.82e-06,0.0,0 STARLINK-5046,1 53892U 22119G   23343.42748400  .00000582  00000-0  54686-4 0  9994,2 53892  53.2181  50.7861 0001408  93.1822 266.9331 15.08838307 67707,6917.886,95.438,540.725,538.777,0.0
53892.0,STARLINK-5046,PAYLOAD,2023-12-10 03:44:49,15.08835854,0.0001474,53.2181,47.5153,100.9495,259.1663,4.259e-05,3.9e-06,0.0,0 STARLINK-5046,1 53892U 22119G   23344.15612627  .00000390  00000-0  42590-4 0  9994,2 53892  53.2181  47.5153 0001474 100.9495 259.1663 15.08835854 67392,6917.893,95.438,540.778,538.738,0.0
53892.0,STARLINK-5046,PAYLOAD,2023-12-10 11:41:44,15.08839,0.0001345,53.2175,46.0291,83.5349,276.5797,7.4396e-05,8.96e-06,0.0,0 STARLINK-5046,1 53892U 22119G   23344.48732617  .00000896  00000-0  74396-4 0  9992,2 53892  53.2175  46.0291 0001345  83.5349 276.5797 15.08839000 67863,6917.883,95.438,540.679,538.818,0.0
53892.0,STARLINK-5046,PAYLOAD,2023-12-11 11:32:31,15.08844515,0.0001371,53.2185,41.5692,81.8467,278.2681,0.00017085,2.433e-05,0.0,0 STARLINK-5046,1 53892U 22119G   23345.48092495  .00002433  00000-0  17085-3 0  9996,2 53892  53.2185  41.5692 0001371  81.8467 278.2681 15.08844515 67598,6917.867,95.437,540.68,538.783,0.0
53892.0,STARLINK-5046,PAYLOAD,2023-12-12 11:23:19,15.08841334,0.0001737,53.2195,37.1083,65.3783,294.739,7.6935e-05,9.37e-06,0.0,0 STARLINK-5046,1 53892U 22119G   23346.47453089  .00000937  00000-0  76935-4 0  9993,2 53892  53.2195  37.1083 0001737  65.3783 294.7390 15.08841334 67741,6917.876,95.437,540.943,538.54,0.0
53892.0,STARLINK-5046,PAYLOAD,2023-12-13 09:38:42,15.08847987,0.0001874,53.2195,32.9469,62.3021,297.8161,0.0001162,1.562e-05,0.0,0 STARLINK-5046,1 53892U 22119G   23347.40188415  .00001562  00000-0  11620-3 0  9999,2 53892  53.2195  32.9469 0001874  62.3021 297.8161 15.08847987 68309,6917.856,95.437,541.017,538.425,0.0
53892.0,STARLINK-5046,PAYLOAD,2023-12-14 09:29:29,15.08843498,0.0001536,53.218,28.4879,72.2112,287.9047,7.224e-05,8.62e-06,0.0,0 STARLINK-5046,1 53892U 22119G   23348.39548553  .00000862  00000-0  72240-4 0  9999,2 53892  53.2180  28.4879 0001536  72.2112 287.9047 15.08843498 68030,6917.87,95.437,540.797,538.672,0.0
53892.0,STARLINK-5046,PAYLOAD,2023-12-15 09:20:17,15.08838053,0.0001645,53.219,24.0237,104.9956,255.1219,1.8148e-05,1e-08,0.0,0 STARLINK-5046,1 53892U 22119G   23349.38908761  .00000001  00000-0  18148-4 0  9992,2 53892  53.2190  24.0237 0001645 104.9956 255.1219 15.08838053 68186,6917.886,95.438,540.889,538.613,0.0
53892.0,STARLINK-5046,PAYLOAD,2023-12-16 09:11:04,15.08835071,0.00016,53.2192,19.5656,108.3864,251.7302,6.7217e-06,-1.81e-06,0.0,0 STARLINK-5046,1 53892U 22119G   23350.38269338 -.00000181  00000-0  67217-5 0  9996,2 53892  53.2192  19.5656 0001600 108.3864 251.7302 15.08835071 68754,6917.895,95.438,540.867,538.654,0.0
53892.0,STARLINK-5046,PAYLOAD,2023-12-17 07:26:28,15.08839243,0.0001544,53.2192,15.4029,110.2458,249.87,1.5377e-05,-4.3e-07,0.0,0 STARLINK-5046,1 53892U 22119G   23351.31005480 -.00000043  00000-0  15377-4 0  9992,2 53892  53.2192  15.4029 0001544 110.2458 249.8700 15.08839243 68891,6917.883,95.438,540.816,538.68,0.0
53892.0,STARLINK-5046,PAYLOAD,2023-12-18 08:52:37,15.0885395,0.0001379,53.2184,10.6412,84.6338,275.4811,0.00022216,3.251e-05,0.0,0 STARLINK-5046,1 53892U 22119G   23352.36988256  .00003251  00000-0  22216-3 0  9991,2 53892  53.2184  10.6412 0001379  84.6338 275.4811 15.08853950 68633,6917.838,95.437,540.657,538.749,0.0
53892.0,STARLINK-5046,PAYLOAD,2023-12-19 08:43:25,15.08845445,0.0001599,53.2182,6.1832,77.8874,282.2297,7.6366e-05,9.28e-06,0.0,0 STARLINK-5046,1 53892U 22119G   23353.36349056  .00000928  00000-0  76366-4 0  9995,2 53892  53.2182   6.1832 0001599  77.8874 282.2297 15.08845445 68780,6917.864,95.437,540.835,538.623,0.0
53892.0,STARLINK-5046,PAYLOAD,2023-12-20 06:58:50,15.08837099,0.0001786,53.2178,2.0213,74.2841,285.8348,-7.8012e-05,-1.529e-05,0.0,0 STARLINK-5046,1 53892U 22119G   23354.29085741 -.00001529  00000-0 -78012-4 0  9996,2 53892  53.2178   2.0213 0001786  74.2841 285.8348 15.08837099 68924,6917.889,95.438,540.99,538.519,0.0
53892.0,STARLINK-5046,PAYLOAD,2023-12-21 06:49:37,15.08853533,0.0001976,53.2184,357.5648,71.8757,288.245,0.00045322,6.935e-05,0.0,0 STARLINK-5046,1 53892U 22119G   23355.28445628  .00006935  00000-0  45322-3 0  9991,2 53892  53.2184 357.5648 0001976  71.8757 288.2450 15.08853533 69070,6917.839,95.437,541.071,538.337,0.0
53892.0,STARLINK-5046,PAYLOAD,2023-12-22 03:29:37,15.08841905,0.0001592,53.2187,353.6901,103.565,256.552,0.00010427,1.372e-05,0.0,0 STARLINK-5046,1 53892U 22119G   23356.14557767  .00001372  00000-0  10427-3 0  9993,2 53892  53.2187 353.6901 0001592 103.5650 256.5520 15.08841905 69202,6917.875,95.437,540.841,538.638,0.0
53892.0,STARLINK-5046,PAYLOAD,2023-12-22 06:40:24,15.08842565,0.000155,53.2185,353.0988,104.1875,255.929,0.00014118,1.96e-05,0.0,0 STARLINK-5046,1 53892U 22119G   23356.27805804  .00001960  00000-0  14118-3 0  9999,2 53892  53.2185 353.0988 0001550 104.1875 255.9290 15.08842565 69647,6917.873,95.437,540.81,538.665,0.0
53892.0,STARLINK-5046,PAYLOAD,2023-12-23 09:41:57,15.08846429,0.0001597,53.2183,348.0398,99.6415,260.4757,5.4856e-05,5.85e-06,0.0,0 STARLINK-5046,1 53892U 22119G   23357.40413783  .00000585  00000-0  54856-4 0  9992,2 53892  53.2183 348.0398 0001597  99.6415 260.4757 15.08846429 69397,6917.861,95.437,540.831,538.621,0.0
53892.0,STARLINK-5046,PAYLOAD,2023-12-24 03:11:12,15.08837219,0.0001499,53.2177,344.7664,85.8261,274.2902,0.00013455,1.854e-05,0.0,0 STARLINK-5046,1 53892U 22119G   23358.13278520  .00001854  00000-0  13455-3 0  9990,2 53892  53.2177 344.7664 0001499  85.8261 274.2902 15.08837219 69501,6917.889,95.438,540.791,538.717,0.0
53892.0,STARLINK-5046,PAYLOAD,2023-12-24 04:46:35,15.08838169,0.000151,53.2177,344.4689,84.8019,275.3145,0.0001403,1.945e-05,0.0,0 STARLINK-5046,1 53892U 22119G   23358.19902480  .00001945  00000-0  14030-3 0  9996,2 53892  53.2177 344.4689 0001510  84.8019 275.3145 15.08838169 69932,6917.886,95.438,540.796,538.706,0.0
53892.0,STARLINK-5046,PAYLOAD,2023-12-25 04:37:22,15.08842556,0.0001354,53.2171,340.0137,106.5837,253.5304,0.00017237,2.457e-05,0.0,0 STARLINK-5046,1 53892U 22119G   23359.19262454  .00002457  00000-0  17237-3 0  9998,2 53892  53.2171 340.0137 0001354 106.5837 253.5304 15.08842556 69662,6917.873,95.437,540.674,538.801,0.0
53892.0,STARLINK-5046,PAYLOAD,2023-12-26 02:52:46,15.08838487,0.0001427,53.2164,335.8486,100.2441,259.8712,7.3311e-05,8.79e-06,0.0,0 STARLINK-5046,1 53892U 22119G   23360.11998617  .00000879  00000-0  73311-4 0  9991,2 53892  53.2164 335.8486 0001427 100.2441 259.8712 15.08838487 69802,6917.885,95.438,540.737,538.763,0.0
53892.0,STARLINK-5046,PAYLOAD,2023-12-26 07:38:56,15.08842594,0.0001429,53.2174,334.9577,98.8338,261.2816,0.00014421,2.008e-05,0.0,0 STARLINK-5046,1 53892U 22119G   23360.31870383  .00002008  00000-0  14421-3 0  9994,2 53892  53.2174 334.9577 0001429  98.8338 261.2816 15.08842594 70250,6917.872,95.437,540.726,538.749,0.0
